OBJECTID,DATASET_EN,DATASET_TC,NameEN,AddressEN,NameTC,AddressTC,DistrictEN,DistrictTC,FacilityTypeEN,FacilityTypeTC,FacilityDetailsEN,FacilityDetailsTC,OpeningHoursEN,OpeningHoursTC,TelephoneEN,TelephoneTC,FaxNumberEN,FaxNumberTC,EmailAddressEN,EmailAddressTC,WebsiteEN,WebsiteTC,NORTHING,EASTING,LATITUDE,LONGITUDE,LASTUPDATE,GeometryEasting,GeometryNorthing,GeometryLongitude,GeometryLatitude
1,"Parks, Zoos and Gardens",公園及動植物公園,Tsuen Wan Park,"59 Wing Shun Street, Tsuen Wan",荃灣公園,荃灣永順街59號,TSUEN WAN,荃灣,"CYCLING TRACKS/GROUNDS,DOG GARDENS/PET GARDENS,GATEBALL COURTS,JOGGING TRACKS/FITNESS TRAILS,PARK,TENNIS COURTS","單車徑/場,狗公園/寵物公園,門球場,緩跑徑/健身徑,公園,網球場",N.A.,N.A.,N.A.,N.A.,N.A.,N.A.,N.A.,N.A.,N.A.,N.A.,http://www.lcsd.gov.hk/en/ls_park.php,http://www.lcsd.gov.hk/b5/ls_park.php,825329,829671,22.36711399,114.1128223,2025-05-19T14:19:20,829671,825329,114.1128223,22.36711399
2,"Parks, Zoos and Gardens",公園及動植物公園,North District Park,"Jockey Club Road, Sheung Shui",北區公園,上水馬會道,NORTH,北區,"AMPHITHEATRE,BASKETBALL COURTS,HANDBALL COURTS,HARD-SURFACE PITCHES,JOGGING TRACKS/FITNESS TRAILS,PARK,VOLLEYBALL COURTS","露天劇場,籃球場,手球場,硬地球場,緩跑徑/健身徑,公園,排球場",7-a-side soccer pitch,7人足球場,N.A.,N.A.,N.A.,N.A.,N.A.,N.A.,N.A.,N.A.,http://www.lcsd.gov.hk/en/ls_park.php,http://www.lcsd.gov.hk/b5/ls_park.php,839924.2000000001,831867.8,22.49892247,114.1341113,2025-05-19T12:23:01,831867.7999999998,839924.1999999993,114.1341113,22.49892247
3,"Parks, Zoos and Gardens",公園及動植物公園,Tsing Yi Northeast Park,"10, Tam Kon Shan Road, Tsing Yi",青衣東北公園,青衣?杆山路10號,KWAI TSING,葵青,"AMPHITHEATRE,BASKETBALL COURTS,CYCLING TRACKS/GROUNDS,GATEBALL COURTS,GRASS PITCHES,JOGGING TRACKS/FITNESS TRAILS,SKATEBOARD GROUNDS,VOLLEYBALL COURTS","露天劇場,籃球場,單車徑/場,門球場,草地球場,緩跑徑/健身徑,滑板場,排球場","11-A-SIDE ARTIFICIAL TURF SOCCER PITCH, 2 BASKETBALL-CUM-VOLLEYBALL COURTS, GATEBALL COURT, CYCLING TRACK, CYCLING TRACK FOR CHILDREN ,SKATEBOARD ARENA, CHILDREN’S PLAY AREAS, WALKING TILE, PIAZZA, WATERFRONT PROMENADE, JOGGING TRAIL WITH FITNESS STATIONS, FITNESS CORNER FOR ELDERLY, LANDSCAPED AREA, BIKE KIOSK, AND A FEE PAYING PUBLIC CAR PARK WITH 33 CAR PARKING SPACES.",十一人人造草地足球場、2個籃球場暨排球場、門球場、單車徑、兒童單車徑、滑板場、兒童遊樂場、足健徑、露天廣場、海濱長廊、設有健體站的緩跑徑、長者健體園地、園景區、單車租用亭 及一個設有三十三個車位的公眾收費停車場。,N.A.,N.A.,N.A.,N.A.,N.A.,N.A.,N.A.,N.A.,N.A.,N.A.,824803.3,828227.8,22.36236049,114.0988126,2025-05-19T12:14:06,828227.7999999998,824803.3000000007,114.0988126,22.36236049
4,"Parks, Zoos and Gardens",公園及動植物公園,Shek Kip Mei Park,"270 Nam Cheong Street, Sham Shui Po",石硤尾公園,深水?南昌街270號,SHAM SHUI PO,深水?,"AMPHITHEATRE,BASKETBALL COURTS,GRASS PITCHES,HARD-SURFACE PITCHES,JOGGING TRACKS/FITNESS TRAILS,PARK,RUGBY PITCHES,TENNIS COURTS","露天劇場,籃球場,草地球場,硬地球場,緩跑徑/健身徑,公園,欖球場,網球場","11-a-side turf soccer pitch/rugby pitch, 7-a-side soccer pitch","11人草地足球場/欖球場, 7人足球場",N.A.,N.A.,N.A.,N.A.,N.A.,N.A.,N.A.,N.A.,http://www.lcsd.gov.hk/en/ls_park.php,http://www.lcsd.gov.hk/b5/ls_park.php,822169,835661,22.33858998,114.170982,2025-05-16T18:01:33,835661,822169,114.170982,22.33858998
5,"Parks, Zoos and Gardens",公園及動植物公園,The park located east of Fan Kam Road,"No. 650 Fan Kam Road, Sheung Shui",粉錦公路以東的公園,上水粉錦公路650號,NORTH,北區,"INCLUSIVE PARK FOR PETS,WALKING TRAIL,5-A-SIDE HARD SURFACE PITCHES","寵物共享公園,步行徑,5人硬地足球場","Inclusive Park for Pets, Walking Trail, 2 nos. of 5-a-side hard-surface Soccer Pitches",寵物共享公園、步行徑、2個五人硬地足球場,The Inclusive Park for Pets is open daily from 9:00 am. to 6:00 pm. The walking trail is open daily from 9:00 am. to 9:00 pm. The two 5-a-side soccer pitches are open daily from 9:00 am. to 6:00 pm.,寵物共享公園開放時間為早上9時至下午6時，步行徑開放時間為早上9時至晚上9時。兩個五人足球場開放時間為早上9時至下午6時,2295 3118,2295 3118,,,fkrp@lcsd.gov.hk,fkrp@lcsd.gov.hk,https://www.lcsd.gov.hk/en/parks/fkrp/index.html,https://www.lcsd.gov.hk/tc/parks/fkrp/index.html,839493.10005543,830631.61515815,22.49502554,114.122099,2025-01-15T14:42:58,830631.6151999999,839493.1000999995,114.122099,22.49502554
6,"Parks, Zoos and Gardens",公園及動植物公園,Tseung Kwan O Waterfront Park,"Tong Yin Street, Tseung Kwan O, Sai Kung",將軍澳海濱公園,西貢將軍澳唐賢街,SAI KUNG,西貢,DOG GARDENS/PET GARDENS,狗公園/寵物公園,"Dog Excreta Collection Bin, Pet Latrine, <br/>Hand-washing Facility and Turf area for pet. Arbours with benches",狗糞收集箱、寵物廁所、洗手設備和草坪(寵物活動區)，蔭棚連坐椅,24 hours daily,每日24小時開放,2791 3100,2791 3100,N.A.,N.A.,N.A.,N.A.,N.A.,N.A.,818105.30275373,844740.975,22.30187134,114.2591025,2024-11-06T14:26:16,844740.9749999996,818105.3027999997,114.2591025,22.30187134
7,"Parks, Zoos and Gardens",公園及動植物公園,Hoi Fai Road Promenade,"Hoi Fai Road, Tai Kok Tsui",海輝道海濱花園,大角咀海輝道,YAU TSIM MONG,油尖旺,PROMENADE,海濱花園,,,,,,,,,,,,,819775.28065094,834352.72727328,22.31697205,114.1582851,2024-10-28T12:34:45,834352.7273000004,819775.2807,114.1582851,22.31697205
8,"Parks, Zoos and Gardens",公園及動植物公園,Tin Tsz Garden,"Tin Tsz Road, Tin Shui Wai, Yuen Long",天慈花園,元朗天水圍天慈路,YUEN LONG,元朗,INCLUSIVE PARK FOR PETS,寵物共享公園,Dog excreta collection bin,狗糞收集箱,24 HOURS DAILY,每日24小時開放,2443 0513 / 2476 7350,2443 0513 / 2476 7350,,,,,,,834742.21823686,818939.99502058,22.4520446,114.00853,2024-10-14T16:21:01,818939.9950000001,834742.2182,114.00853,22.4520446
9,"Parks, Zoos and Gardens",公園及動植物公園,Pui To Road (South) Rest Garden,"Tin Hau Road, Tuen Mun",杯渡路(南)休憩花園,屯門天后路,TUEN MUN,屯門,INCLUSIVE PARK FOR PETS,寵物共享公園,"Water dispenser, Toilets (with accessible toilets), Dog excreta collection bin",飲水設施、洗手間(設有暢通易達洗手間)、狗糞收集箱,24 HOURS DAILY,每日24小時開放,2451 3110,2451 3110,,,,,,,828149.69703025,815145.25020718,22.3924687,113.971751,2024-09-10T12:20:43,815145.2501999997,828149.6970000006,113.971751,22.3924687
10,"Parks, Zoos and Gardens",公園及動植物公園,Wu King Road Garden,"Wu King Road, Tuen Mun",湖景路花園,屯門湖景路,TUEN MUN,屯門,PARK,公園,N.A.,N.A.,N.A.,N.A.,N.A.,N.A.,N.A.,N.A.,N.A.,N.A.,N.A.,N.A.,826266.96414371,814594.43052954,22.37545989,113.9664276,2024-09-10T12:20:15,814594.4304999998,826266.9640999995,113.9664276,22.37545989
11,"Parks, Zoos and Gardens",公園及動植物公園,Hoi Wong Road Garden,"Hoi Wong Road, Tuen Mun (Next to Tuen Mun Swimming Pool)",海皇路花園,屯門海皇路(屯門泳池側),TUEN MUN,屯門,PARK,公園,"Pet Playing Equipment, Dog Excreta Collection Bin, Pet Latrine, Hand-washing Facility and Turf area for pet",寵物遊樂設施、狗糞收集箱、寵物廁所、洗手設備和草坪(寵物活動區),24 hours daily,每日24小時開放,2451 3110,2451 3110,N.A.,N.A.,N.A.,N.A.,http://www.lcsd.gov.hk/lsb/en/facilities.php?ftid=47&did=14,http://www.lcsd.gov.hk/lsb/b5/facilities.php?ftid=47&did=14,827384.7000000001,814989.2000000001,22.3855588,113.9702458,2024-09-10T12:19:46,814989.2000000002,827384.6999999993,113.9702458,22.3855588
12,"Parks, Zoos and Gardens",公園及動植物公園,Ngau Chi Wan Park,"71 Fung Shing Street, Ngau Chi Wan, Wong Tai Sin",牛池灣公園,黃大仙牛池灣豐盛街71號,WONG TAI SIN,黃大仙,"ARCHERY RANGES,BASKETBALL COURTS,DOG GARDENS/PET GARDENS,PARK","射箭場,籃球場,狗公園/寵物公園,公園",,,,,N.A.,N.A.,N.A.,N.A.,N.A.,N.A.,N.A.,N.A.,821899.4,840072.2000000001,22.33615123,114.2138022,2024-08-30T14:43:11,840072.2000000002,821899.4000000004,114.2138022,22.33615123
13,"Parks, Zoos and Gardens",公園及動植物公園,Sun Pat Kan Sitting-out Area,"Wong Ma Kok Road, Stanley",新八間休憩處,赤柱?麻角道,SOUTHERN,南區,INCLUSIVE PARK FOR PETS,寵物共享公園,Dog excreta collection bin,狗糞收集箱,24 HOURS DAILY,每日24小時開放,2555 1268,2555 1268,,,,,,,808682.39895679,840033.77266881,22.21679304,114.2133982,2024-05-24T14:26:36,840033.7726999996,808682.3990000002,114.2133982,22.21679304
14,"Parks, Zoos and Gardens",公園及動植物公園,Hoi Fai Road Park,"Hoi Fai Road, Tai Kok Tsui, Kowloon",海輝道公園,九龍大角咀海輝道,YAU TSIM MONG,油尖旺,"JOGGING TRACKS/FITNESS TRAILS,PARK RAMP,RAIN SHELTERS,TAI CHI AREA,FITNESS CORNERS,VIEWING PLATFORM,INCLUSIVE CHILDREN’S PLAYGROUND WITH DIVERSIFIED EQUIPMENT","緩跑徑/健身徑,公園徑,避雨亭,太極園,健身園地,觀景平台,多元共融兒童遊樂設施","Jogging Tracks , Rain shelters, a park ramp, a viewing platform, a Tai Chi area, fitness corners, an inclusive children’s playground with diversified equipment, toilets, accessible toilets, babycare room, accessible toilet, braille directory map / floor plan",緩跑徑、避雨亭、公園徑、觀景平台、太極園、健身園地、多元共融兒童遊樂設施、洗手間、通用洗手間、育嬰室、暢通易達洗手間、觸覺點字及觸覺平面圖,0700-2300,0700-2300,2302 1762,2302 1762,2736 9555,2736 9555,ytmdo@lcsd.gov.hk,ytmdo@lcsd.gov.hk,https://www.lcsd.gov.hk/en/facilities/facilitieslist.html,https://www.lcsd.gov.hk/tc/facilities/facilitieslist.html,819784.44726433,834099.01035665,22.31705453,114.1558226,2024-04-12T09:27:34,834099.0104,819784.4473000001,114.1558226,22.31705453
15,"Parks, Zoos and Gardens",公園及動植物公園,Shung Ling Street Playground,"Shung Ling Street, San Po Kong, Wong Tai Sin",崇齡街遊樂場,黃大仙新蒲崗崇齡街,WONG TAI SIN,黃大仙,"CHILDREN’S PLAY AREA,FITNESS CORNER FOR THE ELDERLY","兒童遊樂場,長者健體園地","Children's play equipment, elderly fitness conrner, pebble walking trail, barrier free facilities: tactile guide path, braille directory map/floor plan",兒童遊樂設施、長者健體設施、卵石路步行徑、無障礙設施：觸覺引路帶、觸覺點字及平面圖,24 Hours,24 小時,2328 9300,2328 9300,2857 1916,2857 1916,,,,,821838.0952,838273.78586243,22.33560036,114.1963447,2023-04-25T14:30:02,838273.7858999996,821838.0952000003,114.1963447,22.33560036
16,"Parks, Zoos and Gardens",公園及動植物公園,Fung Cheung Road Garden,"Fung Cheung Road, Yuen Long",鳳翔路花園,元朗鳳翔路,YUEN LONG,元朗,"CHILDREN’S PLAY AREA,FITNESS CORNER FOR THE ELDERLY","兒童遊樂場,長者健體園地","Children's playground, Elderly Fitness Corner and Chess Tables",兒童遊樂場、長者健身園地和棋桌,24 hours,24小時,2475 3445,2475 3445,2470 7551,2470 7551,,,,,833893.05062575,821424.19843984,22.44439963,114.0326723,2023-04-25T14:29:53,821424.1984000001,833893.0505999997,114.0326723,22.44439963
17,"Parks, Zoos and Gardens",公園及動植物公園,King's Road Playground,"King's Road, North Point",英皇道遊樂場,北角英皇道,EASTERN,東區,"CHILDREN’S PLAY AREA,ROLLER SKATING RINKS","兒童遊樂場,滾軸溜冰場","Children playground, roller skating rink, Toilets and accessible toilets",兒童遊樂場 、滾軸溜冰場、 男、女洗手間及暢通易達洗手間,24 hours daily,每日24小時開放,2757 4517,2757 4517,,,,,,,817030.32558893,838987.39718118,22.29218233,114.2032636,2023-04-25T14:29:43,838987.3971999995,817030.3256000001,114.2032636,22.29218233
18,"Parks, Zoos and Gardens",公園及動植物公園,Hung Leng Children's Playground,"Hung Leng Village, Fanling, N.T.",孔嶺兒童遊樂場,新界粉嶺孔嶺村,FANLING,粉嶺,"CHILDREN’S PLAY AREA,FITNESS EQUIPMENT","兒童遊樂場,健體園灺","Children's Play Equipment, Fitness Equipment",兒童遊樂設施，健身設施,24 hours daily,全日開放,2679 2818,2679 2818,2671 5410,2671 5410,mppn2@lcsd.gov.hk,mppn2@lcsd.gov.hk,,,841681.86437514,835281.39563793,22.51479994,114.1672851,2023-04-25T14:29:29,835281.3956000004,841681.8643999994,114.1672851,22.51479994
19,"Parks, Zoos and Gardens",公園及動植物公園,Chai Wan Park,"Chai Wan Park, Tsui Wan Street, Chai Wan",柴灣公園,柴灣翠灣街柴灣公園,EASTERN,東區,"PARK, HARD-SURFACE PITCHES, BASKETBALL COURTS, TENNIS COURTS, JOGGING TRACKS/FITNESS TRAILS, MODEL BOAT POOLS","公園, 硬地球場, 籃球場, 網球場, 緩跑徑/健身徑, 模型船池",7-a-side soccer pitch,7人足球場,N.A.,N.A.,N.A.,N.A.,N.A.,N.A.,N.A.,N.A.,https://www.lcsd.gov.hk/en/parks/cwp/index.html,https://www.lcsd.gov.hk/tc/parks/cwp/index.html,814162.8,842618.3,22.26627749,114.2384869,2022-09-29T16:10:13,842618.2999999998,814162.8000000007,114.2384869,22.26627749
20,"Parks, Zoos and Gardens",公園及動植物公園,Po Tsui Park,"Yuk Nga Lane, Tseung Kwan O, N.T.",寶翠公園,新界將軍澳毓雅里,SAI KUNG,西貢,"PARK, GRASS PITCHES, HARD-SURFACE PITCHES, TENNIS COURTS, HANDBALL COURTS, HOCKEY GROUNDS, JOGGING TRACKS/FITNESS TRAILS","公園, 草地球場, 硬地球場, 網球場, 手球場, 曲棍球場, 緩跑徑/健身徑","11-a-side artificial turf soccer cum hockey pitch , 7-a-side soccer cum handball pitch, Tennis Practice Courts","11人人造草地足球場兼曲棍球場, 7人足球兼手球場, 網球練習場",N.A.,N.A.,N.A.,N.A.,N.A.,N.A.,N.A.,N.A.,http://www.lcsd.gov.hk/en/ls_park.php,http://www.lcsd.gov.hk/b5/ls_park.php,820668,844110,22.3250173,114.2529916,2022-09-15T09:24:07,844110,820668,114.2529916,22.3250173
21,"Parks, Zoos and Gardens",公園及動植物公園,Cheung Fai Road Promenade,"Cheung Fai Road, Tsing Yi, N.T.",長輝路海濱花園,青衣長輝路,KWAI TSING,葵青,INCLUSIVE PARK FOR PETS,寵物共享公園,Dog excreta collection bin,狗糞收集箱,24 hours daily,每日24小時開放,2481 5435,2481 5435,,,,,,,823420.58058643,829516.96880952,22.34987903,114.1113348,2022-04-19T16:23:36,829516.9687999999,823420.5806000009,114.1113348,22.34987903
22,"Parks, Zoos and Gardens",公園及動植物公園,Waterfall Bay Park,"Waterfall Bay Road, Wah Fu Estate",瀑布灣公園,華富?瀑布灣道,SOUTHERN,南區,INCLUSIVE PARK FOR PETS,寵物共享公園,"Toilet (with accessible toilet), dog excreta collection bin",洗手間(設有暢通易達洗手間)、狗糞收集箱,24 HOURS DAILY,每日24小時開放,2555 1268,2555 1268,,,,,,,812386.69141086,831960.63552845,22.2502441,114.1350878,2022-04-19T11:31:41,831960.6354999999,812386.6914000008,114.1350878,22.2502441
23,"Parks, Zoos and Gardens",公園及動植物公園,Ap Lei Chau Waterfront Promenade,"Ap Lei Chau Main Street, Ap Lei Chau, Hong Kong",鴨?洲海濱長廊,香港鴨?洲鴨?洲大街,SOUTHERN,南區,"DOG GARDENS/PET GARDENS,INCLUSIVE PARK FOR PETS,SITTING-OUT AREA","狗公園/寵物公園,寵物共享公園,休憩處","Toilet (with accessible toilet), dog excreta collection bin",洗手間(設有暢通易達洗手間)、狗糞收集箱,24 hours daily,每日24小時開放,2555 1268,2555 1268,N.A.,N.A.,N.A.,N.A.,N.A.,N.A.,811786.1,834058.3,22.2448246,114.1554384,2022-04-19T11:29:14,834058.2999999998,811786.0999999996,114.1554384,22.2448246
24,"Parks, Zoos and Gardens",公園及動植物公園,Ap Lei Chau Park,"Ap Lei Chau Main Street, Ap Lei Chau, Hong Kong",鴨?洲公園,香港鴨?洲鴨?洲大街,SOUTHERN,南區,"INCLUSIVE PARK FOR PETS,PLAY EQUIPMENT FOR ALL CHILDREN","寵物共享公園,共融遊樂設施","Toilets (with accessible toilets), dog excreta collection bin",洗手間(設有暢通易達洗手間)、狗糞收集箱,24 hours daily,每日24小時開放,2555 1268,2555 1268,N.A.,N.A.,N.A.,N.A.,N.A.,N.A.,811819,834309.5,22.24512201,114.1578752,2022-04-19T11:24:46,834309.5,811819,114.1578752,22.24512201
25,"Parks, Zoos and Gardens",公園及動植物公園,Wo Keng Shan Road Garden,"Wo Keng Shan Road, Sha Tau Kok Road, Fanling, N.T",禾徑山路花園,新界粉嶺沙頭角路禾徑山路,NORTH,北區,INCLUSIVE PARK FOR PETS,寵物共享公園,"Pavilion, Arbour, Park bench, Dog excreta collection bin",涼亭、陰棚、公園座椅、狗糞收集箱,24 HOURS DAILY,每日24小時開放,2679 2826,2679 2826,,,,,,,842517.29720774,836543.20376891,22.52234447,114.1795494,2022-04-19T11:20:18,836543.2038000003,842517.2971999999,114.1795494,22.52234447
26,"Parks, Zoos and Gardens",公園及動植物公園,Cafeteria Old Beach Sitting-out Area,"Cafeteria Old Beach, Tuen Mun",舊咖啡灣休憩處,屯門舊咖啡灣,TUEN MUN,屯門,INCLUSIVE PARK FOR PETS,寵物共享公園,Dog excreta collection bin,狗糞收集箱,24 HOURS DAILY,每日24小時開放,2451 3110,2451 3110,,,,,,,826251.96308084,816524.67141564,22.3753477,113.98517,2022-02-09T09:56:28,816524.6714000003,826251.9630999994,113.98517,22.3753477
27,"Parks, Zoos and Gardens",公園及動植物公園,Central and Western Distrcit Promenade - Western Wholesale Food Market Setcion,"8 Fung Mat Road, Sai Wan",中西區海濱長廊 – 西區副食品批發市場段,西環豐物道 8 號,CENTRAL AND WESTERN,中西區,INCLUSIVE PARK FOR PETS,寵物共享公園,"Toilets (with accessible toilets), Dog excreta collection bin",洗手間(設有暢通易達洗手間)、狗糞收集箱,24 hours daily<br/>(From 7am to 11pm at waterfront area along pier 5),每日24小時開放<br/> (五號碼頭臨海地段每日早上7時至晚上11時),2853 2575,2853 2575,,,,,,,816738.31225431,832058.49999999,22.2895423,114.1360258,2022-02-09T09:45:05,832058.5,816738.3123000003,114.1360258,22.2895423
28,"Parks, Zoos and Gardens",公園及動植物公園,Tai Po Kau Park,"Tai Po Road (Tai Po Kau), Tai Po Kau",大埔滘公園,大埔滘大埔公路大埔滘段,TAI PO,大埔,INCLUSIVE PARK FOR PETS,寵物共享公園,"Toilets facilities, Dog excreta collection bin",洗手間、狗糞收集箱,24 HOURS DAILY,每日24小時開放,3183 9049,3183 9049,,,,,,,832612.73040198,837521.35886525,22.43290165,114.1890493,2022-01-31T12:30:09,837521.3589000003,832612.7303999998,114.1890493,22.43290165
29,"Parks, Zoos and Gardens",公園及動植物公園,Tolo Harbour Garden,"Tolo Highway, Tai Po",吐露港花園,大埔吐露港公路,TAI PO,大埔,INCLUSIVE PARK FOR PETS,寵物共享公園,Dog excreta collection bin,狗糞收集箱,24 HOURS DAILY,每日24小時開放,3183 9049,3183 9049,,,,,,,833465.71111293,837142.02490422,22.4406047,114.185365,2022-01-31T12:29:37,837142.0248999996,833465.7111000009,114.185365,22.4406047
30,"Parks, Zoos and Gardens",公園及動植物公園,Yuen Chau Tsai Park,"Island House Lane, Tai Po",元洲仔公園,大埔元洲仔里,TAI PO,大埔,INCLUSIVE PARK FOR PETS,寵物共享公園,"Dog excreta collection bin, Toilets (with accessible toilets)",狗糞收集箱、洗手間(設有暢通易達洗手間),24 HOURS DAILY,每日24小時開放,3183 9049,3183 9049,,,,,,,834315.84293846,836310.30969835,22.448282,114.1772854,2022-01-31T12:29:18,836310.3097000001,834315.8429000005,114.1772854,22.448282
31,"Parks, Zoos and Gardens",公園及動植物公園,Tat Wan Road Sitting out Area,"Tat Wan Road, Tai Po",達運道休憩處,大埔達運道,TAI PO,大埔,INCLUSIVE PARK FOR PETS,寵物共享公園,Dog excreta collection bin,狗糞收集箱,24 HOURS DAILY,每日24小時開放,3183 9050,3183 9050,,,,,,,833267.1366,835001.37025815,22.43881124,114.16457,2022-01-31T12:28:45,835001.3702999996,833267.1366000008,114.16457,22.43881124
32,"Parks, Zoos and Gardens",公園及動植物公園,Peng Lei Road Sitting-out Area,"Peng Lei Road, Peng Chau",坪利路休憩處,坪洲坪利路,ISLANDS,離島,INCLUSIVE PARK FOR PETS,寵物共享公園,"Dog excreta collection bin, Toilets (with accessible toilets)","狗糞收集箱, 洗手間(設有暢通易達洗手間)",24 HOURS DAILY,每日24小時開放,2852 3220,2852 3220,,,,,,,816623.80600294,821728.00576906,22.28845208,114.0357808,2022-01-31T12:27:38,821728.0058000004,816623.8059999999,114.0357808,22.28845208
33,"Parks, Zoos and Gardens",公園及動植物公園,Don Bosco Road Garden,"Don Bosco Road, Cheung Chau",思高路花園,長洲思高路,ISLANDS,離島,INCLUSIVE PARK FOR PETS,寵物共享公園,Dog excreta collection bin,狗糞收集箱,24 HOURS DAILY,每日24小時開放,2852 3220,2852 3220,,,,,,,807174.38792234,821727.26161431,22.20311771,114.035859,2022-01-31T12:26:51,821727.2615999999,807174.3879000004,114.035859,22.20311771
34,"Parks, Zoos and Gardens",公園及動植物公園,King Fuk Street Sitting-out Area,"King Fuk Street, Wong Tai Sin",景福街休憩處,黃大仙，景福街,WONG TAI SIN,黃大仙,INCLUSIVE PARK FOR PETS,寵物共享公園,"Park bench, Dog excreta collection bin",公園座椅、狗糞收集箱,24 HOURS DAILY,每日24小時開放,2328 9262,2328 9262,,,,,,,821645.80833592,838262.1412,22.33386391,114.1962314,2022-01-31T12:26:31,838262.1412000004,821645.8082999997,114.1962314,22.33386391
35,"Parks, Zoos and Gardens",公園及動植物公園,Kwai Hei Street Sitting-out Area,"Kwai Fuk Road, Kwai Chung",葵喜街休憩處,葵涌葵福路,KWAI TSING,葵青,INCLUSIVE PARK FOR PETS,寵物共享公園,Dog excreta collection bin,狗糞收集箱,24 HOURS DAILY,每日24小時開放,2423 3408,2423 3408,,,,,,,824296.62059028,830819.08552964,22.35779478,114.1239729,2022-01-31T12:26:00,830819.0855,824296.6206,114.1239729,22.35779478
36,"Parks, Zoos and Gardens",公園及動植物公園,Shek Pui Street Garden,"Shek Pui Street, Kwai Chung",石貝街花園,葵涌石貝街,KWAI TSING,葵青,INCLUSIVE PARK FOR PETS,寵物共享公園,Dog excreta collection bin,狗糞收集箱,24 HOURS DAILY,每日24小時開放,2425 0691,2425 0691,,,,,,,825052.30979453,832124.73518038,22.3646227,114.136647,2022-01-31T12:25:37,832124.7352,825052.3098000009,114.136647,22.3646227
37,"Parks, Zoos and Gardens",公園及動植物公園,Jockey Club Kwai Shing Circuit Sitting-out Area,"Kwai Shing Circuit, Kwai Chung",賽馬會葵盛圍休憩處,葵涌葵盛圍,KWAI TSING,葵青,INCLUSIVE PARK FOR PETS,寵物共享公園,Dog excreta collection bin,狗糞收集箱,24 HOURS DAILY,每日24小時開放,2423 3408,2423 3408,,,,,,,824574.15269102,830831.47668852,22.36030108,114.1240923,2022-01-31T12:25:18,830831.4767000005,824574.1526999995,114.1240923,22.36030108
38,"Parks, Zoos and Gardens",公園及動植物公園,Kam Fung Street Sitting-out Area,"Kam Fung Street , Wong Tai Sin",金鳳街休憩處,黃大仙，金鳳街,WONG TAI SIN,黃大仙,INCLUSIVE PARK FOR PETS,寵物共享公園,"Arbour, Park bench, Dog excreta collection bin",陰棚、公園座椅、狗糞收集箱,24 HOURS DAILY,每日24小時開放,2328 9262,2328 9262,,,,,,,822865.21780278,838444.12697428,22.34487565,114.1979996,2022-01-31T12:24:52,838444.1270000003,822865.2178000007,114.1979996,22.34487565
39,"Parks, Zoos and Gardens",公園及動植物公園,Shing Mun River Promenade Garden No.3,"Tai Chung Kiu Road, City One, Sha Tin",城門河第三海濱花園,沙田第一城大涌橋路,SHA TIN,沙田,INCLUSIVE PARK FOR PETS,寵物共享公園,Dog excreta collection bin,狗糞收集箱,24 HOURS DAILY,每日24小時開放,2634 0119,2634 0119,,,,,,,828024.95341716,838557.22952757,22.3914707,114.199105,2022-01-31T12:20:28,838557.2295000004,828024.9534000009,114.199105,22.3914707
40,"Parks, Zoos and Gardens",公園及動植物公園,Shing Mun River Promenade Garden No.2,"Tai Chung Kiu Road, Sha Tin",城門河第二海濱花園,沙田大涌橋路,SHA TIN,沙田,INCLUSIVE PARK FOR PETS,寵物共享公園,Dog excreta collection bin,狗糞收集箱,24 HOURS DAILY,每日24小時開放,2634 0119,2634 0119,,,,,,,827765.43426857,838844.67992763,22.3891267,114.201896,2022-01-31T12:20:07,838844.6798999999,827765.4342999998,114.201896,22.3891267
41,"Parks, Zoos and Gardens",公園及動植物公園,Shing Mun River Promenade Garden No.1,"Che Kung Miu Road, Sha Tin",城門河第一海濱花園,沙田車公廟路,SHA TIN,沙田,INCLUSIVE PARK FOR PETS,寵物共享公園,Dog excreta collection bin,狗糞收集箱,24 HOURS DAILY,每日24小時開放,2634 0147,2634 0147,,,,,,,826420.50505722,837607.92624462,22.3769827,114.189885,2022-01-31T12:19:41,837607.9261999996,826420.5051000006,114.189885,22.3769827
42,"Parks, Zoos and Gardens",公園及動植物公園,Ma On Shan Sai Sha Road Garden,"Sai Sha Road, Ma On Shan",馬鞍山西沙路花園,馬鞍山西沙路,SHA TIN,沙田,INCLUSIVE PARK FOR PETS,寵物共享公園,Dog excreta collection bin,狗糞收集箱,24 HOURS DAILY,每日24小時開放,2634 0143,2634 0143,,,,,,,831678.61337624,841463.84998219,22.4244587,114.227343,2022-01-31T12:19:21,841463.8499999996,831678.6133999992,114.227343,22.4244587
43,"Parks, Zoos and Gardens",公園及動植物公園,Mei Tin Road Sitting-out Area,"Mei Tin Road, Tai Wai",美田路休憩處,大圍美田路,SHA TIN,沙田,INCLUSIVE PARK FOR PETS,寵物共享公園,Dog excreta collection bin,狗糞收集箱,24 HOURS DAILY,每日24小時開放,2634 0147,2634 0147,,,,,,,826443.14960487,836011.31813395,22.3771877,114.174382,2022-01-31T12:18:56,836011.3180999998,826443.1495999992,114.174382,22.3771877
44,"Parks, Zoos and Gardens",公園及動植物公園,Bowen Road Park,"Bowen Road, Wan Chai",寶雲道公園,灣仔寶雲道,WAN CHAI,灣仔,"DOG GARDENS/PET GARDENS,INCLUSIVE PARK FOR PETS,PARK","狗公園/寵物公園,寵物共享公園,公園","Park bench, Dog Excreta Collection Bin","公園座椅, 狗糞收集箱",24 hours daily,每日24小時開放,2879 5612,2879 5612,N.A.,N.A.,N.A.,N.A.,,,814576.87613027,835720.90855057,22.27002819,114.1715662,2022-01-31T12:16:32,835720.9085999997,814576.8761,114.1715662,22.27002819
45,"Parks, Zoos and Gardens",公園及動植物公園,Bowen Road Garden,"Bowen Road, Wan Chai",寶雲道花園,灣仔寶雲道,WAN CHAI,灣仔,"DOG GARDENS/PET GARDENS,GARDEN,INCLUSIVE PARK FOR PETS","狗公園/寵物公園,花園,寵物共享公園","Park bench, Dog Excreta Collection Bin","公園座椅, 狗糞收集箱",24 hours daily,每日24小時開放,2879 5612,2879 5612,N.A.,N.A.,N.A.,N.A.,,,814869.64884103,835131.99288666,22.27267183,114.165852,2022-01-31T12:15:01,835131.9929,814869.6488000005,114.165852,22.27267183
46,"Parks, Zoos and Gardens",公園及動植物公園,Tsing Bik Sitting-out Area,"Tsing Bik Street, Tuen Mun",青碧休憩處,屯門青碧街,TUEN MUN,屯門,INCLUSIVE PARK FOR PETS,寵物共享公園,Dog excreta collection bin,狗糞收集箱,24 HOURS DAILY,每日24小時開放,2451 3110,2451 3110,,,,,,,826466.11843215,816030.46134041,22.37727587,113.9803686,2022-01-31T12:07:10,816030.4612999996,826466.1184,113.9803686,22.37727587
47,"Parks, Zoos and Gardens",公園及動植物公園,San On Sitting-out Area,"San On Street, Tuen Mun",新安休憩處,屯門新安街,TUEN MUN,屯門,INCLUSIVE PARK FOR PETS,寵物共享公園,Dog excreta collection bin,狗糞收集箱,24 HOURS DAILY,每日24小時開放,2451 3110,2451 3110,,,,,,,828208.64381134,815011.84836386,22.39299937,113.9704548,2022-01-31T11:58:27,815011.8483999996,828208.6437999997,113.9704548,22.39299937
48,"Parks, Zoos and Gardens",公園及動植物公園,Sheung Tsuen Park,"Kam Sheung Road, Yuen Long",上村公園,元朗錦上路,YUEN LONG,元朗,INCLUSIVE PARK FOR PETS,寵物共享公園,Dog excreta collection bin,狗糞收集箱,24 HOURS DAILY,每日24小時開放,2475 3445 / 2470 7137,2475 3445 / 2470 7137,,,,,,,832497.47769528,828625.40253429,22.43184428,114.102636,2022-01-31T11:56:56,828625.4024999999,832497.4777000006,114.102636,22.43184428
49,"Parks, Zoos and Gardens",公園及動植物公園,Hang Hau Garden,"Tin Chau Road, Hang Hau, Tseung Kwan O. N.T.",坑口花園,新界將軍澳坑口田洲路,SAI KUNG,西貢,INCLUSIVE PARK FOR PETS,寵物共享公園,Dog excreta collection bin,狗糞收集箱,24 HOURS DAILY,每日24小時開放,2791 3112,2791 3112,,,,,,,819518.70915817,845749.0884,22.31462998,114.2688944,2022-01-31T11:54:40,845749.0883999998,819518.7092000004,114.2688944,22.31462998
50,"Parks, Zoos and Gardens",公園及動植物公園,Hung Shing Street Rest Garden,"Wai Fung Street, Ap Lei Chau",洪聖街休憩花園,鴨?洲惠風街,SOUTHERN,南區,INCLUSIVE PARK FOR PETS,寵物共享公園,Dog excreta collection bin,狗糞收集箱,24 HOURS DAILY,每日24小時開放,2555 1268,2555 1268,,,,,,,811779.75862646,834144.09626006,22.24476715,114.1562707,2022-01-31T11:46:45,834144.0963000003,811779.7586000003,114.1562707,22.24476715
51,"Parks, Zoos and Gardens",公園及動植物公園,Wing Hong Street Rest Garden,Wing Hong Street,永康街休憩花園,永康街,SHAM SHUI PO,深水?,INCLUSIVE PARK FOR PETS,寵物共享公園,Dog excreta collection bin,狗糞收集箱,24 HOURS DAILY,每日24小時開放,2370 9193,2370 9193,,,,,,,822349.86502614,833637.99952979,22.3402211,114.1513439,2022-01-31T11:43:42,833637.9994999999,822349.8650000002,114.1513439,22.3402211
52,"Parks, Zoos and Gardens",公園及動植物公園,Lung Cheung Road Lookout,Lung Cheung Road,龍翔道眺望處,龍翔道,SHAM SHUI PO,深水?,INCLUSIVE PARK FOR PETS,寵物共享公園,Dog excreta collection bin,狗糞收集箱,24 HOURS DAILY,每日24小時開放,2370 9954,2370 9954,,,,,,,822640.684,835706.57660777,22.34284928,114.1714243,2022-01-31T11:42:14,835706.5766000003,822640.6840000004,114.1714243,22.34284928
53,"Parks, Zoos and Gardens",公園及動植物公園,Pier 3 Garden,"Roof, Central Pier No. 3,Man Kwong Street, Central",三號碼頭花園,中環民光街3號碼頭天台,CENTRAL AND WESTERN,中西區,INCLUSIVE PARK FOR PETS,寵物共享公園,Dog excreta collection bin,狗糞收集箱,24 HOURS DAILY,每日24小時開放,2853 2573,2853 2573,,,,,,,816565.73177638,834269.20217743,22.28798776,114.1574784,2022-01-31T11:26:32,834269.2022000002,816565.7317999993,114.1574784,22.28798776
54,"Parks, Zoos and Gardens",公園及動植物公園,Pier 2 Garden,"Roof, Central Pier No. 2, Man Kwong Street, Central",二號碼頭花園,中環民光街2號碼頭天台,CENTRAL AND WESTERN,中西區,INCLUSIVE PARK FOR PETS,寵物共享公園,Dog excreta collection bin,狗糞收集箱,24 HOURS DAILY,每日24小時開放,2853 2573,2853 2573,,,,,,,816590.81267627,834174.25305638,22.28821414,114.156557,2022-01-31T11:25:15,834174.2531000003,816590.8126999997,114.156557,22.28821414
55,"Parks, Zoos and Gardens",公園及動植物公園,Central Pier Waterfront,"Man Kwong Street, Central",中環碼頭海濱長廊,中環民光街,CENTRAL AND WESTERN,中西區,INCLUSIVE PARK FOR PETS,寵物共享公園,Dog excreta collection bin,狗糞收集箱,24 HOURS DAILY,每日24小時開放,2853 2573,2853 2573,,,,,,,816493.47489808,834422.67339829,22.28733541,114.1589678,2022-01-31T11:19:58,834422.6733999997,816493.4748999998,114.1589678,22.28733541
56,"Parks, Zoos and Gardens",公園及動植物公園,Wing Lee Street Rest Garden,"Wing Lee Street, Sheung Wan",永利街休憩花園,上環永利街,CENTRAL AND WESTERN,中西區,INCLUSIVE PARK FOR PETS,寵物共享公園,Dog excreta collection bin,狗糞收集箱,24 HOURS DAILY,每日24小時開放,2853 2605,2853 2605,,,,,,,816041.42153549,833514.38652312,22.28325187,114.1501547,2022-01-31T11:14:46,833514.3865,816041.4214999992,114.1501547,22.28325187
57,"Parks, Zoos and Gardens",公園及動植物公園,Central & Western District Promenade-Sheung Wan Section,"Chung Kong Road, Sheung Wan",中西區海濱長廊-上環段,上環中港道,CENTRAL AND WESTERN,中西區,INCLUSIVE PARK FOR PETS,寵物共享公園,Dog excreta collection bin,狗糞收集箱,24 HOURS DAILY,每日24小時開放,2540 9704,2540 9704,,,,,,,816705.46821872,833472.58502327,22.28924856,114.149748,2022-01-31T11:11:07,833472.585,816705.4682,114.149748,22.28924856
58,"Parks, Zoos and Gardens",公園及動植物公園,Tin Ping Road Garden,"Tin Ping Road, Sheung Shui, N.T.",天平路花園,上水天平路,NORTH,北區,INCLUSIVE PARK FOR PETS,寵物共享公園,"Pavilion, Arbour, Park bench, Dog excreta collection bin, Hand-washing facilities",涼亭、陰棚、公園座椅、狗糞收集箱、洗手設施,24 HOURS DAILY,每日24小時開放,2679 2826,2679 2826,,,,,,,841075.14546312,831114.98043211,22.50931355,114.1267913,2022-01-31T11:06:06,831114.9803999998,841075.1455000006,114.1267913,22.50931355
59,"Parks, Zoos and Gardens",公園及動植物公園,Kai Tak Avenue Park,"16 Muk On Street, Kowloon City",啟德大道公園,九龍城沐安街16號,KOWLOON CITY,九龍城,"BASKETBALL COURTS,CHILDREN’S PLAY AREA,FITNESS EQUIPMENT","籃球場,兒童遊樂場,健體園灺","Basketball Courts, Toilets are provided in the Park, Other facilities include a children's playground and 6 fitness corners, Barrier Free Facilities: Accessible Toilet, Tactile Guide Path, Braille Directory Map/Floor Plan","籃球場, 公園內設有洗手間, 其他設施包括1個兒童遊樂場和6個健身園地, <br/>無障礙設施：暢通易達洗手間、觸覺引路帶、觸覺點字及觸覺平面圖。",N.A.,N.A.,2706 5813,2706 5813,2706 5466,2706 5466,N.A.,N.A.,,,821195.6272,838790.02918907,22.32979782,114.2013549,2022-01-31T10:01:40,838790.0291999998,821195.6272,114.2013549,22.32979782
60,"Parks, Zoos and Gardens",公園及動植物公園,Wan Chai Gap Park,"Stubbs Road , Wan Chai",灣仔峽公園,灣仔司徒拔道,WAN CHAI,灣仔,"DOG GARDENS/PET GARDENS,INCLUSIVE PARK FOR PETS,PARK","狗公園/寵物公園,寵物共享公園,公園","Park bench, Dog Excreta Collection Bin","公園座椅, 狗糞收集箱",24 hours daily,每日24小時開放,2879 5612,2879 5612,N.A.,N.A.,N.A.,N.A.,,,814252.61592434,835493.98612284,22.26709982,114.1693646,2022-01-28T09:39:54,835493.9861000003,814252.6159000006,114.1693646,22.26709982
61,"Parks, Zoos and Gardens",公園及動植物公園,Sai Kung Waterfront Park,"Wai Man Road, Sai Kung",西貢海濱公園,西貢惠民路,SAI KUNG,西貢,"INCLUSIVE PARK FOR PETS,PLAY EQUIPMENT FOR ALL CHILDREN","寵物共享公園,共融遊樂設施",Dog excreta collection bin,狗糞收集箱,24 HOURS DAILY,每日24小時開放,2791 0158,2791 0158,N.A.,N.A.,N.A.,N.A.,N.A.,N.A.,827041.1,846336.7000000001,22.38255826,114.2746449,2022-01-21T15:38:35,846336.7000000002,827041.0999999996,114.2746449,22.38255826
62,"Parks, Zoos and Gardens",公園及動植物公園,Tai Tsoi Yuen Garden,"Tai Tsoi Yuen Road, Cheung Chau",大菜園花園,長洲大菜園路,ISLANDS,離島,GATEBALL COURTS,門球場,,,"2 pm to 6 pm
Turf maintenance on every Thursday","下午2時至6時
逢星期四草地保養",2852 3220,2852 3220,N.A.,N.A.,N.A.,N.A.,N.A.,N.A.,807386.9,821039.6,22.20503122,114.0291881,2022-01-20T09:41:25,821039.5999999996,807386.9000000004,114.0291881,22.20503122
63,"Parks, Zoos and Gardens",公園及動植物公園,Tai Tau Leng Sitting-out Area,"Tai Tau Leng Village, Po Shek Wu Road, Sheung Shui, N.T.",大頭嶺休憩處,新界上水寶石湖路大頭嶺村,NORTH,北區,"BADMINTON COURTS,CHILDREN’S PLAY AREA","羽毛球場,兒童遊樂場",,,24 hours daily,全日開放,2679 2818,2679 2818,N.A.,N.A.,N.A.,N.A.,N.A.,N.A.,840075.7000000001,830754.5,22.50028734,114.1232912,2022-01-20T09:41:24,830754.5,840075.6999999993,114.1232912,22.50028734
64,"Parks, Zoos and Gardens",公園及動植物公園,Yat Ming Road Park,Junction of Yat Ming Road and Pak Wo Road,一鳴路公園,粉嶺一鳴路與百和路交界,FANLING,粉嶺,"DOG GARDENS/PET GARDENS,FITNESS EQUIPMENT,JOGGING TRACKS/FITNESS TRAILS,PLAY EQUIPMENT FOR ALL CHILDREN,CHILDREN’S PLAY AREA","狗公園/寵物公園,健體園灺,緩跑徑/健身徑,共融遊樂設施,兒童遊樂場","The venue provides drinking fountains, arbours and sitting benches, children's play equipment, pet garden, elderly fitness equipment, fitness equipment, jogging tracks, toilet, toilet for person with disability, lawn, Tai Chi area","場內設有飲水機,蔭棚及坐椅,兒童遊樂設施,狗公園/寵物公園 ,長者健身設施,健身設施,緩跑徑,洗手間,暢通易達洗手間,大草地,太極場",6 am to 11 pm daily,每日早上六時至晚上十一時,2679 2818,2679 2818,2671 5410,2671 5410,mppn2@lcsd.gov.hk,mppn2@lcsd.gov.hk,N.A.,N.A.,838445.23395872,832974.84859302,22.48556901,114.1448732,2022-01-11T11:45:21,832974.8486000001,838445.2339999992,114.1448732,22.48556901
65,"Parks, Zoos and Gardens",公園及動植物公園,East Coast Park (Phase 1),East Coast Park (Phase 1),東岸公園 (第一期),東岸公園 (第一期),WAN CHAI,灣仔,PARK,公園,"Dog Excreta Collection Bin, Arbours, Benches","狗糞收集箱, 涼亭, 坐椅",24 HOURS DAILY,每日24小時開放,2879 5612,2879 5612,N.A.,N.A.,N.A.,N.A.,N.A.,N.A.,816559.16296928,837536.58655444,22.28792912,114.1891845,2021-10-05T11:17:21,837536.5866,816559.1630000006,114.1891845,22.28792912
66,"Parks, Zoos and Gardens",公園及動植物公園,Ma Wo Road Garden,"2 Ma Wo Road, Tai Po, New Territories",馬窩路花園,新界大埔馬窩路2號,TAI PO,大埔,PARK,公園,"2 Basketball cum volleyball courts, fitness corner, pebble walking trail, chess tables, men's and ladies' toilets and changing rooms , babycare room, universal toilet, Barrier Free Facilities: Accessible Toilet, Tactile Guide Path, Braille Directory Map/Floor Plan",2個籃球暨排球場、健身區、卵石路步行徑、棋?、男、女洗手間及更衣室、 育嬰室、通用洗手間、 無障礙設施： 暢通易達洗手間、觸覺引路帶、觸覺點字及觸覺平面圖,7 A.M. to 11 P.M. daily,每日上午7時至晚上11時,3183 9050,3183 9050,2651 0315,2651 0315,mpptp2@lcsd.gov.hk,mpptp2@lcsd.gov.hk,N.A.,N.A.,833702,835103,22.44273833,114.165557,2021-06-22T15:16:35,835103,833702,114.165557,22.44273833
67,"Parks, Zoos and Gardens",公園及動植物公園,On Sau Road Park,"On Sau Road, Kwun Tong",安秀道公園,觀塘安秀道,KWUN TONG,觀塘,"FITNESS EQUIPMENT,JOGGING TRACKS/FITNESS TRAILS","健體園灺,緩跑徑/健身徑","8 Fitness Stations. Toilets and changing rooms with lockers are provided in the Park. (including accessible toilets). Barrier Free Facilities: Accessible Toilet, Tactile Guide Path, Braille Directory Map/Floor Plan",8 個健身設施. 公園內設有男 / 女洗手間、更衣室及貯物櫃. 無障礙設施：暢通易達洗手間、觸覺引路帶、觸覺點字及觸覺平面圖,24 hr,24 hr,2553 5532,2553 5532,2553 5564,2553 5564,N.A.,N.A.,N.A.,N.A.,820442.01375418,841951.02244258,22.3229847,114.232035,2021-03-26T14:23:11,841951.0224000001,820442.0138000008,114.232035,22.3229847
68,"Parks, Zoos and Gardens",公園及動植物公園,Ki Lun Kong Public Park,"Opposite to Sam Shing Estate, Castle Peak Road, Tuen Mun",麒麟崗公眾公園,屯門青山公路三聖?對面,TUEN MUN,屯門,DOG GARDENS/PET GARDENS,狗公園/寵物公園,Dog excreta collection bin,狗糞收集箱,24 hours daily,每日24小時開放,2451 3105,2451 3105,2459 2175,2459 2175,N.A.,N.A.,N.A.,N.A.,827035.81315859,815854.74574996,22.3824184,113.9786551,2021-02-09T11:06:53,815854.7456999999,827035.8132000007,113.9786551,22.3824184
69,"Parks, Zoos and Gardens",公園及動植物公園,Tong Yam Street Hillside Sitting-out Area,"Tong Yam Street, Shek Kip Mei",棠蔭街山邊休憩處,石硤尾棠蔭街,SHAM SHUI PO,深水?,"DOG GARDENS/PET GARDENS,SITTING-OUT AREA","狗公園/寵物公園,休憩處","Wash basin, two nos. of dog excreta collection bin","洗手盆, 兩個狗糞收集箱",24 hours daily,每日24小時開放,2370 9954,2370 9954,2370 9954,2370 9954,N.A.,N.A.,N.A.,N.A.,821041,835545,22.32840315,114.1698565,2020-11-20T09:32:00,835545,821041,114.1698565,22.32840315
70,"Parks, Zoos and Gardens",公園及動植物公園,San Wan Road Sitting-out Area,"San Wan Road, Fanling",新運路休憩處,新界粉嶺新運路,NORTH,北區,"FITNESS EQUIPMENT,SITTING-OUT AREA","健體園灺,休憩處",Elderly Fitness Corner,長者健身園地,24 Hours Daily,全日24小時開放,N.A.,N.A.,N.A.,N.A.,N.A.,N.A.,N.A.,N.A.,839510.27645831,832103.88448557,22.49518487,114.1364068,2020-03-13T15:41:17,832103.8844999997,839510.2764999997,114.1364068,22.49518487
71,"Parks, Zoos and Gardens",公園及動植物公園,Wan Chai Gap Park,"Coombe Road, Mid-Levels, Wan Chai, HK",灣仔峽公園,香港灣仔半山區甘道,WAN CHAI,灣仔,"PLAY EQUIPMENT FOR ALL CHILDREN,FITNESS EQUIPMENT,LIGHT REFRESHMENT KIOSK","共融遊樂設施,健體園灺,小食亭","Children’s Play Equipment, Fitness Equipment for the Elderly, Light Refreshment Kiosk, Toilets","兒童遊樂設施, 長者健體園地, 小食亭, 洗手間",24 Hours,全日24 小時,N.A.,N.A.,N.A.,N.A.,N.A.,N.A.,N.A.,N.A.,814244.50833211,835480.19688979,22.2670266,114.1692308,2019-12-04T15:27:02,835480.1968999999,814244.5083000008,114.1692308,22.2670266
72,"Parks, Zoos and Gardens",公園及動植物公園,On Muk Street Garden,"On Muk Street, Sha Tin",安睦街花園,沙田安睦街,SHA TIN,沙田,PARK,公園,N.A.,N.A.,N.A.,N.A.,N.A.,N.A.,N.A.,N.A.,N.A.,N.A.,N.A.,N.A.,827795.75222603,839176.28309779,22.38939996,114.2051162,2019-10-18T11:36:13,839176.2830999997,827795.7522,114.2051162,22.38939996
73,"Parks, Zoos and Gardens",公園及動植物公園,Gloucester Road Garden,"Gloucester Road, Wan Chai",告士打道花園,灣仔告士打道,WAN CHAI,灣仔,PARK,公園,N.A.,N.A.,N.A.,N.A.,N.A.,N.A.,N.A.,N.A.,N.A.,N.A.,N.A.,N.A.,815656.78701907,835807.79781295,22.27978051,114.1724089,2019-10-18T11:35:55,835807.7977999998,815656.7870000005,114.1724089,22.27978051
74,"Parks, Zoos and Gardens",公園及動植物公園,Ap Lei Chau Wind Tower Park,"Lei Chi Road, Ap Lei Chau, Hong Kong",鴨?洲風之塔公園,香港鴨?洲利枝道,SOUTHERN,南區,"AMPHITHEATRE,PARK","露天劇場,公園",N.A.,N.A.,Exhibition Gallery: 9:00am - 9:00pm daily<br/>Other park area: 24 hours daily,展覽館: 每日早上9時至晚上9時<br/>其他公園範圍: 每日24小時,2555 0103,2555 0103,N.A.,N.A.,N.A.,N.A.,N.A.,N.A.,811762.6,833802.6,22.24461204,114.152958,2019-10-18T11:23:35,833802.5999999996,811762.5999999996,114.152958,22.24461204
75,"Parks, Zoos and Gardens",公園及動植物公園,Kwong Fuk Sitting-out Area,"Kwong Wang Street, Tai Po",廣福休憩處,大埔廣宏街,TAI PO,大埔,SITTING-OUT AREA,休憩處,N.A.,N.A.,N.A.,N.A.,N.A.,N.A.,N.A.,N.A.,N.A.,N.A.,N.A.,N.A.,834174,835940,22.44700107,114.1736879,2019-01-29T14:18:17,835940,834174,114.1736879,22.44700107
76,"Parks, Zoos and Gardens",公園及動植物公園,Wong Nai Chung Road Crescent Garden,"Wong Nai Chung Road, Happy Valley, Hong Kong",黃泥涌道新月花園,香港跑馬地黃泥涌道,WAN CHAI,灣仔,PARK,公園,"- 1 set of Play Equipment for Toddlers of Age 2-5 (including climbing frame, swings and play panels). <br/>- 1 set of Play Equipment for Children of Age 5-12 (including climbing frame, slides, play panels, sway boat and climbing wall).",- 1套適合2-5歲兒童使用的組件（包括：攀爬架、鞦韆、遊戲板)<br/>- 1套適合5-12歲兒童使用的組件（包括：攀爬架、滑梯、遊戲板、搖搖船、攀爬牆）,N.A.,N.A.,2895 1523,2895 1523,N.A.,N.A.,N.A.,N.A.,N.A.,N.A.,814596.9,837031.8,22.27020923,114.1842852,2018-12-03T14:44:22,837031.7999999998,814596.9000000004,114.1842852,22.27020923
77,"Parks, Zoos and Gardens",公園及動植物公園,Ngau Tau Kok Park,"199 Kwun Tong Road, Kowloon",牛頭角公園,九龍觀塘道199號,KWUN TONG,觀塘,"JOGGING TRACKS/FITNESS TRAILS,HARD-SURFACE PITCHES","緩跑徑/健身徑,硬地球場","7-a-side Soccer Pitches (Free Outdoor Pitches/Courts)
Jogging Tracks / Fitness Trails","七人足球場 (戶外免費球場)
緩跑徑 / 健身徑","7 am to 11 pm (Soccer)
24 hours daily (Jogging Tracks)","上午7時至晚上11時 (Soccer)
每日24小時開放 (Jogging Tracks)",2343 6123,2343 6123,N.A.,N.A.,N.A.,N.A.,"http://www.lcsd.gov.hk/en/facilities/facilitieslist/facilities.php?ftid=3&did=6&fcid=8 (Soccer)
http://www.lcsd.gov.hk/en/facilities/facilitieslist/facilities.php?ftid=26&did=6 (Jogging Tracks)","http://www.lcsd.gov.hk/tc/facilities/facilitieslist/facilities.php?ftid=3&did=6&fcid=8 (Soccer)
http://www.lcsd.gov.hk/tc/facilities/facilitieslist/facilities.php?ftid=26&did=6 (Jogging Tracks)",820441.4,840197.6,22.32298436,114.2150159,2017-03-02T12:32:48,840197.5999999996,820441.4000000004,114.2150159,22.32298436
78,"Parks, Zoos and Gardens",公園及動植物公園,Oaklands Avenue Sitting-out Area,"Oaklands Avenue, Mid-level",屋蘭士街休憩處,半山屋蘭士街,CENTRAL AND WESTERN,中西區,DOG GARDENS/PET GARDENS,狗公園/寵物公園,N.A.,N.A.,N.A.,N.A.,N.A.,N.A.,N.A.,N.A.,N.A.,N.A.,http://www.lcsd.gov.hk/en/facilities/facilitieslist/facilities.php?ftid=47&did=1,http://www.lcsd.gov.hk/tc/facilities/facilitieslist/facilities.php?ftid=47&did=1,816006,832836.6,22.28293107,114.1435779,2016-07-14T11:38:10,832836.5999999996,816006,114.1435779,22.28293107
79,"Parks, Zoos and Gardens",公園及動植物公園,Wan Po Road Pet Garden,"Wan Po Road, Tseung Kwan O, Sai Kung",環保大道寵物公園,西貢將軍澳環保大道,SAI KUNG,西貢,DOG GARDENS/PET GARDENS,狗公園/寵物公園,"Amenity Lawn for pets, Drink fountain for dogs, Dog’s latrine, Garden benches, Toilet","休憩草坪, 狗隻飲水器, 狗廁所, 公園座椅, 洗手間",7:00 am to 9:00 pm daily,每日上午七時至下午九時,2791 3100,2791 3100,N.A.,N.A.,N.A.,N.A.,N.A.,N.A.,818455.3,845745.7000000001,22.30502708,114.2688552,2016-06-14T16:54:20,845745.7000000002,818455.3000000007,114.2688552,22.30502708
80,"Parks, Zoos and Gardens",公園及動植物公園,Po Lam Sitting-Out Area,"Po Lam Road North, Tseung Kwan O, Sai Kung",寶琳休憩處,西貢將軍澳寶琳北路,SAI KUNG,西貢,"SITTING-OUT AREA,DOG GARDENS/PET GARDENS","休憩處,狗公園/寵物公園",Sitting-Out Area/Pet Garden,休憩處/寵物公園,24 hours,全日開放,N.A.,N.A.,N.A.,N.A.,N.A.,N.A.,N.A.,N.A.,820914,844214.5,22.32723834,114.2540071,2016-05-04T12:27:51,844214.5,820914,114.2540071,22.32723834
81,"Parks, Zoos and Gardens",公園及動植物公園,San Ha Street Playground,San Ha Street,新廈街遊樂場,新廈街,EASTERN,東區,PARK,公園,N.A.,N.A.,N.A.,N.A.,2564 2539,2564 2539,2590 6926,2590 6926,N.A.,N.A.,N.A.,N.A.,813948.3,843265.3,22.26433791,114.2447633,2015-06-03T14:38:24,843265.2999999998,813948.3000000007,114.2447633,22.26433791
82,"Parks, Zoos and Gardens",公園及動植物公園,Po Kong Village Road / Shung Wah Street Sitting-out Area,J/O Po Kong Village Road / Shung Wah Street,蒲崗村道 / 崇華街休憩處,蒲崗村道 / 崇華街交界,WONG TAI SIN,黃大仙,DOG GARDENS/PET GARDENS,狗公園/寵物公園,"Pet Corner, Arbours with benches, Pets’ play equipment
Drinking fountain",寵物角、蔭棚連坐椅、寵物遊戲設施、 飲水器,24 hours daily,每日24小時開放,2351 7535,2351 7535,N.A.,N.A.,N.A.,N.A.,N.A.,N.A.,822975.4,838608,22.34587074,114.1995906,2015-05-13T14:30:36,838608,822975.4000000004,114.1995906,22.34587074
83,"Parks, Zoos and Gardens",公園及動植物公園,Tin Yip Road Park,"Tin Yip Road, Tin Shui Wai",天業路公園,新界天水圍天業路,YUEN LONG,元朗,"PARK,GRASS PITCHES","公園,草地球場","11-A-Side Soccer Pitches, Toilet
Changing Room, Accessible Toilet, Babycare Room","十一人足球場,洗手間
更衣室, 暢通易達洗手間, 育嬰間",8:00am to 11:00pm daily,每日上午8時至晚上11時,2682 3197,2682 3197,N.A.,N.A.,N.A.,N.A.,N.A.,N.A.,835981.4,818830.2000000001,22.46323409,114.0074497,2015-05-13T12:30:22,818830.2000000002,835981.4000000004,114.0074497,22.46323409
84,"Parks, Zoos and Gardens",公園及動植物公園,Jordan Valley Park,"No.71, New Clear Water Bay Road",佐敦谷公園,觀塘新清水灣道71號,KWUN TONG,觀塘,"PARK,MODEL CAR PLAY AREA,JOGGING TRACKS/FITNESS TRAILS","公園,模型車場,緩跑徑/健身徑","4 Jogging Tracks with 1,115m length and Fitness Stations","4條全長1,115米設有健身站的緩跑徑",N.A.,,2342 2241,2342 2241,N.A.,N.A.,N.A.,N.A.,,,821201,840897,22.32984225,114.2218066,2015-05-13T11:14:59,840897,821201,114.2218066,22.32984225
85,"Parks, Zoos and Gardens",公園及動植物公園,Wai Lok Street Temporary Soccer Pitch,"Wai Yip Street and Wai Lok Street junction, Kwun Tong, Kowloon (near Laguna Park)",偉樂街臨時足球場,九龍觀塘偉業街與偉樂街交界(近麗港公園),KWUN TONG,觀塘,GRASS PITCHES,草地球場,"7-A-Side Soccer Pitches, Changing facilities（showering facilities are not provided）, Portable toilets","7人足球場, 更衣室（不設淋浴設施）, 流動廁所",8 am to 6 pm daily (except Monday),每日上午8時至下午6時（星期一除外）,2343 6123 / 2717 5705,2343 6123 / 2717 5705,N.A.,N.A.,N.A.,N.A.,N.A.,N.A.,818336.3,841333.7000000001,22.30397107,114.2260365,2015-05-13T11:07:28,841333.7000000002,818336.3000000007,114.2260365,22.30397107
86,"Parks, Zoos and Gardens",公園及動植物公園,Tai Ping Village Playground,"Po Lo Che Road, Sai Kung",太平村遊樂場,西貢菠蘿輋路,SAI KUNG,西貢,BASKETBALL COURTS,籃球場,1 basketball court,1個籃球場,7am – 6pm,上午7時至晚上6時,2791 3100,2791 3100,N.A.,N.A.,N.A.,N.A.,N.A.,N.A.,826823.9,845051.1,22.38060389,114.2621601,2015-05-12T10:18:18,845051.0999999996,826823.9000000004,114.2621601,22.38060389
87,"Parks, Zoos and Gardens",公園及動植物公園,Ma On Shan Promenade,"Ning Tai Road, Ma On Shan",馬鞍山海濱長廊,馬鞍山寧泰路,SHA TIN,沙田,PARK,公園,"Male and Female Toilet, Toilet for persons with disabilities, Fitness Station","男、女洗手間, 殘疾人士洗手間, 健體站",24 Hours,全日開放,2643 5320,2643 5320,N.A.,N.A.,N.A.,N.A.,N.A.,N.A.,829948,840750.5,22.40883274,114.2204092,2014-09-17T14:58:42,840750.5,829948,114.2204092,22.40883274
88,"Parks, Zoos and Gardens",公園及動植物公園,Quarry Bay Promenade,"Hoi Yu Street, Quarry Bay",?魚涌海濱花園,?魚涌海裕街,EASTERN,東區,DOG GARDENS/PET GARDENS,狗公園/寵物公園,"Arbour, benches and dog excreta collection bins",涼亭、座椅及狗糞收集箱,24 hours daily,每日24小時,2513 8499,2513 8499,N.A.,N.A.,N.A.,N.A.,N.A.,N.A.,816832.7000000001,840131.9,22.29039576,114.2143695,2014-09-16T16:04:27,840131.9000000004,816832.6999999993,114.2143695,22.29039576
89,"Parks, Zoos and Gardens",公園及動植物公園,Tung Chung North Park,"No. 29 Man Tung Road, Tung Chung",東涌北公園,東涌文東路29號,ISLANDS,離島,PLAY EQUIPMENT FOR ALL CHILDREN,共融遊樂設施,"1 set of Play Equipment for Age 2-5, 1 set of Play Equipment for Age 5-12, 1 spectator stand with 200 seats, Toilets, bathing and changing rooms, Floodlight system","1套適合2-5歲兒童使用的組件, 1套適合5-12 歲兒童使用的組件, 觀眾看台(約200人), 洗手間、浴室及更衣室, 泛光燈",7 am to 11 pm daily (Free of charge),每日上午7時至晚上11時 (免費使用),21093423,21093423,N.A.,N.A.,N.A.,N.A.,N.A.,N.A.,816896.3,812774,22.29081439,113.9488892,2012-10-29T14:32:41,812774,816896.3000000007,113.9488892,22.29081439
90,"Parks, Zoos and Gardens",公園及動植物公園,Cornwall Street Park,"17 Cornwall Street, Kowloon Tong, Kowloon",歌和老街公園,九龍塘歌和老街17號,SHAM SHUI PO,深水?,"PARK, JOGGING TRACKS/FITNESS TRAILS","公園, 緩跑徑/健身徑",N.A.,N.A.,N.A.,N.A.,N.A.,N.A.,N.A.,N.A.,N.A.,N.A.,N.A.,N.A.,822201,835970.9,22.33887904,114.1739903,2012-08-24T10:47:28,835970.9000000004,822201,114.1739903,22.33887904
91,"Parks, Zoos and Gardens",公園及動植物公園,Middle Road Children's Playground,"Middle Road, Tsim Sha Tsui, Kowloon",中間道兒童遊樂場,九龍尖沙咀中間道,YAU TSIM MONG,油尖旺,PLAY EQUIPMENT FOR ALL CHILDREN,共融遊樂設施,N.A.,N.A.,N.A.,N.A.,N.A.,N.A.,N.A.,N.A.,N.A.,N.A.,N.A.,N.A.,817387.9,835981.5,22.29541388,114.1740941,2010-12-06T14:42:38,835981.5,817387.9000000004,114.1740941,22.29541388
92,"Parks, Zoos and Gardens",公園及動植物公園,Fung Tak Park,"42, Fung Tak Road, Wong Tai Sin, Kowloon",鳳德公園,九龍黃大仙鳳德道42號,WONG TAI SIN,黃大仙,"PARK, PLAY EQUIPMENT FOR ALL CHILDREN","公園, 共融遊樂設施",N.A.,N.A.,N.A.,N.A.,N.A.,N.A.,N.A.,N.A.,N.A.,N.A.,N.A.,N.A.,822589.4,838449.9,22.34238515,114.1980553,2010-12-06T12:22:01,838449.9000000004,822589.4000000004,114.1980553,22.34238515
93,"Parks, Zoos and Gardens",公園及動植物公園,Nam Cheong Park,"20 Sham Mong Road, Kowloon",南昌公園,九龍深旺道20號,SHAM SHUI PO,深水?,PLAY EQUIPMENT FOR ALL CHILDREN,共融遊樂設施,N.A.,N.A.,N.A.,N.A.,N.A.,N.A.,N.A.,N.A.,N.A.,N.A.,N.A.,N.A.,820563.6,834262.8,22.32409123,114.1574113,2010-12-06T12:19:53,834262.7999999998,820563.5999999996,114.1574113,22.32409123
94,"Parks, Zoos and Gardens",公園及動植物公園,Lion Rock Park,"Chuk Yuen Road, Wong Tai Sin, Kowloon",獅子山公園,九龍黃大仙竹園道,WONG TAI SIN,黃大仙,PARK,公園,N.A.,N.A.,N.A.,N.A.,N.A.,N.A.,N.A.,N.A.,N.A.,N.A.,N.A.,N.A.,822861.7000000001,836986.3,22.34484541,114.1838474,2010-12-02T12:12:57,836986.2999999998,822861.6999999993,114.1838474,22.34484541
95,"Parks, Zoos and Gardens",公園及動植物公園,Ma On Shan Park,"12 On Chun Street, Ma On Shan",馬鞍山公園,馬鞍山鞍駿街12號,SHA TIN,沙田,"PARK, JOGGING TRACKS/FITNESS TRAILS","公園, 緩跑徑/健身徑",N.A.,N.A.,N.A.,N.A.,N.A.,N.A.,N.A.,N.A.,N.A.,N.A.,http://www.lcsd.gov.hk/en/ls_park.php,http://www.lcsd.gov.hk/b5/ls_park.php,831992.7000000001,841859.3,22.4272941,114.2311852,2010-10-13T14:52:50,841859.2999999998,831992.6999999993,114.2311852,22.4272941
96,"Parks, Zoos and Gardens",公園及動植物公園,North Point Promenade,"North Point Ferry Pier, Hong Kong",北角海濱花園,香港北角渡輪碼頭,EASTERN,東區,PARK,公園,"Pet corner, elderly fitness equipment, garden benches, landscaping area",寵物角、長者健身設施、公園椅、園景,24 hrs,24小時,N.A.,N.A.,N.A.,N.A.,N.A.,N.A.,N.A.,N.A.,817174.3,838804.7000000001,22.29348308,114.2014909,2010-10-06T16:17:09,838804.7000000002,817174.3000000007,114.2014909,22.29348308
97,"Parks, Zoos and Gardens",公園及動植物公園,Quarry Bay Park,"Near Hoi Tai Street, Quarry Bay",?魚涌公園,?魚涌近海堤街,EASTERN,東區,"PARK, GRASS PITCHES, TENNIS COURTS, BASKETBALL COURTS, CYCLING TRACKS/GROUNDS, JOGGING TRACKS/FITNESS TRAILS","公園, 草地球場, 網球場, 籃球場, 單車徑/場, 緩跑徑/健身徑",7-a-side Artificial Turf Football Pitches,7人人造草足球場,,,,,,,,,http://www.lcsd.gov.hk/en/ls_park.php,http://www.lcsd.gov.hk/b5/ls_park.php,816612.2000000001,840251,22.28840423,114.2155247,2010-04-21T10:59:37,840251,816612.1999999993,114.2155247,22.28840423
98,"Parks, Zoos and Gardens",公園及動植物公園,Tin Shui Wai Park,"6 Tin Shui Road, Tin Shui Wai, Yuen Long",天水圍公園,天水圍天瑞路6號,YUEN LONG,元朗,"PARK, HARD-SURFACE PITCHES, TENNIS COURTS, BASKETBALL COURTS, VOLLEYBALL COURTS, GATEBALL COURTS, SKATEBOARD GROUNDS, MODEL CAR PLAY AREA, MODEL BOAT POOLS","公園, 硬地球場, 網球場, 籃球場, 排球場, 門球場, 滑板場, 模型車場, 模型船池","5-a-side Soccer Pitch, Basketball cum Volleyball Courts","五人足球場, 籃球暨排球場",N.A.,N.A.,N.A.,N.A.,N.A.,N.A.,N.A.,N.A.,http://www.lcsd.gov.hk/en/ls_park.php,http://www.lcsd.gov.hk/b5/ls_park.php,835143,818418,22.45565875,114.0034542,2010-04-15T17:34:21,818418,835143,114.0034542,22.45565875
99,"Parks, Zoos and Gardens",公園及動植物公園,Central Kwai Chung Park,"San Kwai Street, Kwai Chung",中葵涌公園,葵涌新葵街,KWAI TSING,葵青,"PARK, HARD-SURFACE PITCHES, BASKETBALL COURTS, VOLLEYBALL COURTS, JOGGING TRACKS/FITNESS TRAILS","公園, 硬地球場, 籃球場, 排球場, 緩跑徑/健身徑",5-a-side soccer pitch,5人足球場,N.A.,N.A.,N.A.,N.A.,N.A.,N.A.,N.A.,N.A.,http://www.lcsd.gov.hk/en/ls_park.php,http://www.lcsd.gov.hk/b5/ls_park.php,824230,831741.1,22.35719612,114.1329246,2010-03-09T15:25:50,831741.0999999996,824230,114.1329246,22.35719612
100,"Parks, Zoos and Gardens",公園及動植物公園,Shing Mun Valley Park,"Shing Mun Road, Tsuen Wan",城門谷公園,荃灣城門道,TSUEN WAN,荃灣,"PARK, HARD-SURFACE PITCHES, TENNIS COURTS, BASKETBALL COURTS, VOLLEYBALL COURTS, HANDBALL COURTS","公園, 硬地球場, 網球場, 籃球場, 排球場, 手球場","7-a-side soccer pitch cum handball court, basketball-cum-volleyball courts","7人足球場兼手球場, 籃球場兼排球場",N.A.,N.A.,N.A.,N.A.,N.A.,N.A.,N.A.,N.A.,http://www.lcsd.gov.hk/en/ls_park.php,http://www.lcsd.gov.hk/b5/ls_park.php,826174,830933,22.37474917,114.1250726,2010-03-09T15:23:00,830933,826174,114.1250726,22.37474917
101,"Parks, Zoos and Gardens",公園及動植物公園,Yuen Long Park,"Town Park Road North, Yuen Long",元朗公園,元朗元朗公園北路,YUEN LONG,元朗,"PARK, HARD-SURFACE PITCHES, GATEBALL COURTS, AVIARY PAGODA, HANDBALL COURTS","公園, 硬地球場, 門球場, 百鳥塔, 手球場","7-a-side Soccer Pitch, 5-a-side Soccer Pitch","七人足球場, 五人足球場,",N.A.,N.A.,N.A.,N.A.,N.A.,N.A.,N.A.,N.A.,http://www.lcsd.gov.hk/en/ls_park.php,http://www.lcsd.gov.hk/b5/ls_park.php,833684,820009,22.44249924,114.0189263,2010-03-09T15:21:13,820009,833684,114.0189263,22.44249924
102,"Parks, Zoos and Gardens",公園及動植物公園,Hong Kong Zoological & Botanical Gardens,"Albany Road, Central & Western",香港動植物公園,中西區雅賓利道,CENTRAL AND WESTERN,中西區,PARK,公園,,,N.A.,N.A.,N.A.,N.A.,N.A.,N.A.,N.A.,N.A.,http://www.lcsd.gov.hk/en/ls_park.php,http://www.lcsd.gov.hk/b5/ls_park.php,815425,834109,22.27768633,114.1559254,2010-03-09T15:19:58,834109,815425,114.1559254,22.27768633
103,"Parks, Zoos and Gardens",公園及動植物公園,West Kowloon Waterfront Promenade,West Kowloon Reclamation Area (J/O Austin Road West/ Nga Cheung Road),西九龍海濱長廊,西九龍填海區 (九龍柯士甸道西/雅翔道交界),YAU TSIM MONG,油尖旺,"PARK, CYCLING TRACKS/GROUNDS","公園, 單車徑/場",N.A.,N.A.,N.A.,N.A.,N.A.,N.A.,N.A.,N.A.,N.A.,N.A.,http://www.lcsd.gov.hk/en/ls_park.php,http://www.lcsd.gov.hk/b5/ls_park.php,817973.1,833969.6,22.30069709,114.1545691,2009-10-29T18:07:40,833969.5999999996,817973.0999999996,114.1545691,22.30069709
104,"Parks, Zoos and Gardens",公園及動植物公園,Po Hong Park,"Wan Lung Road, Tseung Kwan O",寶康公園,將軍澳運隆路,SAI KUNG,西貢,"PARK, HARD-SURFACE PITCHES, HANDBALL COURTS, BASKETBALL COURTS, VOLLEYBALL COURTS, GATEBALL COURTS, ROLLER SKATING RINKS, JOGGING TRACKS/FITNESS TRAILS","公園, 硬地球場, 手球場, 籃球場, 排球場, 門球場, 滾軸溜冰場, 緩跑徑/健身徑",7-a-side soccer cum handball pitch,七人足球兼手球場,N.A.,N.A.,N.A.,N.A.,N.A.,N.A.,N.A.,N.A.,http://www.lcsd.gov.hk/en/ls_park.php,http://www.lcsd.gov.hk/b5/ls_park.php,819977,844591,22.3187749,114.2576568,2009-10-29T14:27:20,844591,819977,114.2576568,22.3187749
105,"Parks, Zoos and Gardens",公園及動植物公園,Kowloon Walled City Park,"Tung Tsing Road,Kowloon City",九龍寨城公園,九龍城東正道,KOWLOON CITY,九龍城,PARK,公園,,,N.A.,N.A.,N.A.,N.A.,N.A.,N.A.,N.A.,N.A.,http://www.lcsd.gov.hk/en/ls_park.php,http://www.lcsd.gov.hk/b5/ls_park.php,821401.2000000001,837602.4,22.33165589,114.1898271,2009-09-18T15:53:46,837602.4000000004,821401.1999999993,114.1898271,22.33165589
106,"Parks, Zoos and Gardens",公園及動植物公園,Nan Lian Garden,"Fung Tak Road, Diamond Hill, Wong Tai Sin",南蓮園池,黃大仙鑽石山鳳德道60號,WONG TAI SIN,黃大仙,PARK,公園,,,N.A.,N.A.,N.A.,N.A.,N.A.,N.A.,N.A.,N.A.,http://www.lcsd.gov.hk/en/ls_park.php,http://www.lcsd.gov.hk/b5/ls_park.php,822229,839116.5,22.33912956,114.2045257,2009-08-27T17:50:19,839116.5,822229,114.2045257,22.33912956
107,"Parks, Zoos and Gardens",公園及動植物公園,Hong Kong Park,"19 Cotton Tree Drive, Central",香港公園,中環紅棉路19號,CENTRAL AND WESTERN,中西區,PARK,公園,,,N.A.,N.A.,N.A.,N.A.,N.A.,N.A.,N.A.,N.A.,http://www.lcsd.gov.hk/en/ls_park.php,http://www.lcsd.gov.hk/b5/ls_park.php,815383,834672,22.27730765,114.1613883,2009-08-27T17:47:25,834672,815383,114.1613883,22.27730765
108,"Parks, Zoos and Gardens",公園及動植物公園,Yuen Po Street Bird Garden,"Yuen Po Street, Mongkok",園圃街雀鳥花園,旺角園圃街,YAU TSIM MONG,油尖旺,PARK,公園,N.A.,N.A.,N.A.,N.A.,N.A.,N.A.,N.A.,N.A.,N.A.,N.A.,http://www.lcsd.gov.hk/en/ls_park.php,http://www.lcsd.gov.hk/b5/ls_park.php,820749.9,835951.6,22.32577476,114.1738033,2009-08-27T17:07:52,835951.5999999996,820749.9000000004,114.1738033,22.32577476
109,"Parks, Zoos and Gardens",公園及動植物公園,Tsuen Wan Riviera Park,"2A Yi Hong Street, Tsuen Wan",荃灣海濱公園,荃灣怡康街2A號,TSUEN WAN,荃灣,"PARK, GRASS PITCHES, TENNIS COURTS, BASKETBALL COURTS, VOLLEYBALL COURTS, GATEBALL COURTS","公園, 草地球場, 網球場, 籃球場, 排球場, 門球場","11-a-side Natural Grass Soccer Pitch, Basketball cum Volleyball Court","11人天然草地足球場, 籃球場暨排球場",N.A.,N.A.,N.A.,N.A.,N.A.,N.A.,N.A.,N.A.,http://www.lcsd.gov.hk/en/ls_park.php,http://www.lcsd.gov.hk/b5/ls_park.php,824915,829602,22.36337508,114.1121541,2009-07-16T12:13:01,829602,824915,114.1121541,22.36337508
